OBJECT_NAME,OBJECT_ID,EPOCH,MEAN_MOTION,ECCENTRICITY,INCLINATION,RA_OF_ASC_NODE,ARG_OF_PERICENTER,MEAN_ANOMALY,EPHEMERIS_TYPE,CLASSIFICATION_TYPE,NORAD_CAT_ID,ELEMENT_SET_NO,REV_AT_EPOCH,BSTAR,MEAN_MOTION_DOT,MEAN_MOTION_DDOT
CUBEBUG-2 (LO-74),2013-066AA,2026-06-14T02:46:43.227840,14.93738647,.00586137,97.8903,114.0809,38.9303,321.6115,0,U,39440,999,67653,.41940544E-3,.4533E-4,0
FUNCUBE-1 (AO-73),2013-066AE,2026-06-13T20:59:27.159360,15.09452478,.00353773,97.8267,136.2511,212.6416,147.2626,0,U,39444,999,67916,.45803274E-3,.7372E-4,0
UWE-3,2013-066AG,2026-06-13T19:21:45.292608,14.96999955,.00481152,97.8688,120.8577,332.4032,27.4636,0,U,39446,999,67707,.38954975E-3,.4526E-4,0
UNISAT-6,2014-033C,2026-06-14T07:25:35.218560,14.88233086,.00463214,97.7871,318.0720,78.5448,282.0966,0,U,40012,999,64573,.32787917E-3,.3031E-4,0
DUCHIFAT-1,2014-033M,2026-06-14T03:26:03.729408,15.64039026,.00034173,98.0474,223.8762,119.3968,240.7631,0,U,40021,999,65527,.11822122E-2,.112865E-2,0
QB50P1,2014-033R,2026-06-13T23:40:36.462432,15.18216590,.00075618,98.0960,175.9078,228.0389,132.0200,0,U,40025,999,65254,.43163671E-3,.8764E-4,0
LILACSAT-2,2015-049K,2026-06-14T04:13:48.672192,15.51356675,.00053536,97.4649,201.9032,259.3379,100.7270,0,U,40908,999,59528,.2974557E-3,.17413E-3,0
FOX-1A (AO-85),2015-058D,2026-06-14T01:34:52.871808,14.90956726,.01302584,64.7761,288.6834,57.8004,303.5661,0,U,40967,999,11310,.22792156E-3,.2476E-4,0
CAS-2T & KS-1Q,2016-066G,2026-06-14T04:38:06.159840,14.44685244,.03427028,98.3820,240.9636,138.5317,224.2432,0,U,41847,999,50436,.2324134E-3,.1608E-4,0
RADFXSAT (FOX-1B),2017-073E,2026-06-14T03:57:52.147296,15.12676252,.01500201,97.4711,32.4423,339.7577,19.7744,0,U,43017,999,46493,.37613429E-3,.8607E-4,0
DIWATA-2B,2018-084H,2026-06-14T05:39:15.927264,15.00439453,.00123413,98.1178,1.3158,179.7166,180.4066,0,U,43678,999,41577,.19907065E-3,.2442E-4,0
ES'HAIL 2,2018-090A,2026-06-14T04:40:24.959712,1.00269087,.00015144,0.0008,357.8194,125.2169,235.3627,0,U,43700,999,2764,0,.153E-5,0
FOX-1CLIFF (AO-95),2018-099N,2026-06-14T03:04:39.014976,15.26654463,.00082983,97.4390,225.3853,9.0334,351.1052,0,U,43770,999,41275,.45844507E-3,.11968E-3,0
ITASAT,2018-099AE,2026-06-14T02:57:29.670912,15.19023460,.00124283,97.4033,216.6958,11.1997,348.9512,0,U,43786,999,41244,.31977918E-3,.6642E-4,0
JY1SAT (JO-97),2018-099AX,2026-06-14T03:49:49.540224,15.33568110,.00042143,97.4134,227.9830,277.2169,82.8595,0,U,43803,999,41316,.5156255E-3,.16674E-3,0
UWE-4,2018-111E,2026-06-14T07:15:43.547040,15.45969448,.0006031,97.5859,93.5612,355.2213,4.8977,0,U,43880,999,41033,.66149013E-3,.3225E-3,0
TIANYAN 01,2019-093C,2026-06-14T06:50:18.149856,14.86515020,.00150357,97.7536,237.5873,95.7186,264.5744,0,U,44881,999,35098,.12383206E-3,.1044E-4,0
RS-44 & BREEZE-KM R/B,2019-096E,2026-06-14T04:34:33.060288,12.79748810,.02180555,82.5218,341.6965,151.1526,210.1839,0,U,44909,999,30196,.42003764E-4,.23E-6,0
SALSAT,2020-068K,2026-06-14T00:08:22.352064,15.29759103,.0008281,97.8843,167.8766,321.5879,38.4769,0,U,46495,999,31487,.28632437E-3,.8178E-4,0
XW-3 (CAS-9),2021-131B,2026-06-14T06:40:05.515104,14.41355242,.00053359,98.4982,257.6830,103.2580,256.9204,0,U,50466,999,23469,.18071902E-3,.541E-5,0
GREENCUBE (IO-117),2022-080E,2026-06-13T07:02:28.697280,6.42583230,.00089108,70.1444,299.5995,290.4576,69.5127,0,U,53109,999,9181,0,-.3E-7,0
UMKA 1 (RS40S),2023-091G,2026-06-14T04:46:21.624096,15.20787062,.0014132,97.5056,223.9073,126.9272,233.3260,0,U,57172,999,16355,.28270809E-3,.6176E-4,0
CUBESX-HSE 3 (RS42S),2023-091N,2026-06-14T05:35:35.183040,15.31149367,.00121039,97.5100,230.7826,103.7558,256.5031,0,U,57178,999,16397,.44403125E-3,.1332E-3,0
MONITOR-3 (RS58S),2023-091Q,2026-06-14T06:01:29.111232,15.27790442,.00131101,97.5090,228.6750,109.7588,250.5066,0,U,57180,999,16384,.41612564E-3,.11252E-3,0
MONITOR-4 (RS57S),2023-091S,2026-06-14T05:31:33.709728,15.27875695,.00131212,97.5085,228.6254,110.1690,250.0962,0,U,57182,999,16384,.36628886E-3,.992E-4,0
MONITOR-2 (RS39S),2023-091U,2026-06-14T05:11:34.438848,15.18886244,.00126533,97.5078,223.5183,120.0821,240.1669,0,U,57184,999,16350,.23089195E-3,.4756E-4,0
SVYATOBOR 1 (RS60S),2023-091X,2026-06-14T05:46:46.245792,15.26571433,.00109017,97.5096,229.0413,103.2260,257.0195,0,U,57187,999,16386,.35905906E-3,.9336E-4,0
VIZARD-METEO (RS38S),2023-091Z,2026-06-14T06:44:51.950112,15.35944470,.00084336,97.5100,234.7078,86.2910,273.9298,0,U,57189,999,16424,.49927655E-3,.17425E-3,0
POLYTECH-UNIVERSE 3 (RS46S),2023-091AB,2026-06-14T05:51:18.732384,15.19088035,.00167105,97.5053,223.0501,136.1179,224.1386,0,U,57191,999,16350,.26760501E-3,.5565E-4,0
UTMN 2 (RS27S),2023-091AP,2026-06-14T06:03:14.276448,15.31988986,.00094137,97.5095,232.4323,92.5019,267.7300,0,U,57203,999,16409,.43690277E-3,.13441E-3,0
