CUBEBUG-2 (LO-74)       
1 39440U 13066AA  26165.11577810  .00004533  00000+0  41941-3 0  9992
2 39440  97.8903 114.0809 0058613  38.9303 321.6115 14.93738647676538
FUNCUBE-1 (AO-73)       
1 39444U 13066AE  26164.87461990  .00007372  00000+0  45803-3 0  9994
2 39444  97.8267 136.2511 0035377 212.6416 147.2626 15.09452478679163
UWE-3                   
1 39446U 13066AG  26164.80677422  .00004526  00000+0  38955-3 0  9996
2 39446  97.8688 120.8577 0048115 332.4032  27.4636 14.96999955677071
UNISAT-6                
1 40012U 14033C   26165.30943540  .00003031  00000+0  32788-3 0  9993
2 40012  97.7871 318.0720 0046321  78.5448 282.0966 14.88233086645732
DUCHIFAT-1              
1 40021U 14033M   26165.14309872  .00112865  00000+0  11822-2 0  9990
2 40021  98.0474 223.8762 0003417 119.3968 240.7631 15.64039026655277
QB50P1                  
1 40025U 14033R   26164.98653313  .00008764  00000+0  43164-3 0  9994
2 40025  98.0960 175.9078 0007561 228.0389 132.0200 15.18216590652541
LILACSAT-2              
1 40908U 15049K   26165.17625778  .00017413  00000+0  29746-3 0  9999
2 40908  97.4649 201.9032 0005353 259.3379 100.7270 15.51356675595283
FOX-1A (AO-85)          
1 40967U 15058D   26165.06588972  .00002476  00000+0  22792-3 0  9993
2 40967  64.7761 288.6834 0130258  57.8004 303.5661 14.90956726113100
CAS-2T & KS-1Q          
1 41847U 16066G   26165.19312685  .00001608  00000+0  23241-3 0  9997
2 41847  98.3820 240.9636 0342702 138.5317 224.2432 14.44685244504361
RADFXSAT (FOX-1B)       
1 43017U 17073E   26165.16518689  .00008607  00000+0  37613-3 0  9990
2 43017  97.4711  32.4423 0150020 339.7577  19.7744 15.12676252464938
DIWATA-2B               
1 43678U 18084H   26165.23560101  .00002442  00000+0  19907-3 0  9997
2 43678  98.1178   1.3158 0012341 179.7166 180.4066 15.00439453415773
ES'HAIL 2               
1 43700U 18090A   26165.19473333  .00000153  00000+0  00000+0 0  9992
2 43700   0.0008 357.8194 0001514 125.2169 235.3627  1.00269087 27648
FOX-1CLIFF (AO-95)      
1 43770U 18099N   26165.12822934  .00011968  00000+0  45845-3 0  9992
2 43770  97.4390 225.3853 0008298   9.0334 351.1052 15.26654463412757
ITASAT                  
1 43786U 18099AE  26165.12326008  .00006642  00000+0  31978-3 0  9995
2 43786  97.4033 216.6958 0012428  11.1997 348.9512 15.19023460412446
JY1SAT (JO-97)          
1 43803U 18099AX  26165.15960116  .00016674  00000+0  51563-3 0  9990
2 43803  97.4134 227.9830 0004214 277.2169  82.8595 15.33568110413169
UWE-4                   
1 43880U 18111E   26165.30258735  .00032250  00000+0  66149-3 0  9998
2 43880  97.5859  93.5612 0006031 355.2213   4.8977 15.45969448410336
TIANYAN 01              
1 44881U 19093C   26165.28493229  .00001044  00000+0  12383-3 0  9994
2 44881  97.7536 237.5873 0015035  95.7186 264.5744 14.86515020350988
RS-44 & BREEZE-KM R/B   
1 44909U 19096E   26165.19066042  .00000023  00000+0  42004-4 0  9997
2 44909  82.5218 341.6965 0218055 151.1526 210.1839 12.79748810301960
SALSAT                  
1 46495U 20068K   26165.00581426  .00008178  00000+0  28632-3 0  9997
2 46495  97.8843 167.8766 0008281 321.5879  38.4769 15.29759103314876
XW-3 (CAS-9)            
1 50466U 21131B   26165.27784161  .00000541  00000+0  18072-3 0  9995
2 50466  98.4982 257.6830 0005335 103.2580 256.9204 14.41355242234692
GREENCUBE (IO-117)      
1 53109U 22080E   26164.29338770 -.00000003  00000+0  00000+0 0  9990
2 53109  70.1444 299.5995 0008910 290.4576  69.5127  6.42583230 91811
UMKA 1 (RS40S)          
1 57172U 23091G   26165.19886139  .00006176  00000+0  28271-3 0  9994
2 57172  97.5056 223.9073 0014132 126.9272 233.3260 15.20787062163559
CUBESX-HSE 3 (RS42S)    
1 57178U 23091N   26165.23304610  .00013320  00000+0  44403-3 0  9998
2 57178  97.5100 230.7826 0012103 103.7558 256.5031 15.31149367163974
MONITOR-3 (RS58S)       
1 57180U 23091Q   26165.25103138  .00011252  00000+0  41613-3 0  9997
2 57180  97.5090 228.6750 0013110 109.7588 250.5066 15.27790442163844
MONITOR-4 (RS57S)       
1 57182U 23091S   26165.23025127  .00009920  00000+0  36629-3 0  9998
2 57182  97.5085 228.6254 0013121 110.1690 250.0962 15.27875695163845
MONITOR-2 (RS39S)       
1 57184U 23091U   26165.21637082  .00004756  00000+0  23089-3 0  9995
2 57184  97.5078 223.5183 0012653 120.0821 240.1669 15.18886244163508
SVYATOBOR 1 (RS60S)     
1 57187U 23091X   26165.24081303  .00009336  00000+0  35906-3 0  9990
2 57187  97.5096 229.0413 0010901 103.2260 257.0195 15.26571433163862
VIZARD-METEO (RS38S)    
1 57189U 23091Z   26165.28115683  .00017425  00000+0  49928-3 0  9992
2 57189  97.5100 234.7078 0008433  86.2910 273.9298 15.35944470164248
POLYTECH-UNIVERSE 3 (R*)
1 57191U 23091AB  26165.24396681  .00005565  00000+0  26761-3 0  9992
2 57191  97.5053 223.0501 0016710 136.1179 224.1386 15.19088035163501
UTMN 2 (RS27S)          
1 57203U 23091AP  26165.25224857  .00013441  00000+0  43690-3 0  9994
2 57203  97.5095 232.4323 0009413  92.5019 267.7300 15.31988986164099
